[
  {
    "OBJECT_NAME": "NOAA 15",
    "OBJECT_ID": "1998-030A",
    "EPOCH": "2025-04-16T21:21:42.626016",
    "MEAN_MOTION": 14.26945406,
    "ECCENTRICITY": 0.0010926,
    "INCLINATION": 98.5405,
    "RA_OF_ASC_NODE": 133.3017,
    "ARG_OF_PERICENTER": 151.1045,
    "MEAN_ANOMALY": 209.0743,
    "EPHEMERIS_TYPE": 0,
    "CLASSIFICATION_TYPE": "U",
    "NORAD_CAT_ID": 25338,
    "ELEMENT_SET_NO": 999,
    "REV_AT_EPOCH": 40049,
    "BSTAR": 0.00029021,
    "MEAN_MOTION_DOT": 6.63e-6,
    "MEAN_MOTION_DDOT": 0
  },
  {
    "OBJECT_NAME": "DMSP 5D-3 F16 (USA 172)",
    "OBJECT_ID": "2003-048A",
    "EPOCH": "2025-04-16T22:55:25.394592",
    "MEAN_MOTION": 14.14337938,
    "ECCENTRICITY": 0.000608,
    "INCLINATION": 99.0166,
    "RA_OF_ASC_NODE": 122.2984,
    "ARG_OF_PERICENTER": 274.3952,
    "MEAN_ANOMALY": 143.9644,
    "EPHEMERIS_TYPE": 0,
    "CLASSIFICATION_TYPE": "U",
    "NORAD_CAT_ID": 28054,
    "ELEMENT_SET_NO": 999,
    "REV_AT_EPOCH": 10923,
    "BSTAR": 0.00026817,
    "MEAN_MOTION_DOT": 4.67e-6,
    "MEAN_MOTION_DDOT": 0
  },
  {
    "OBJECT_NAME": "NOAA 18",
    "OBJECT_ID": "2005-018A",
    "EPOCH": "2025-04-16T21:34:51.339648",
    "MEAN_MOTION": 14.13578825,
    "ECCENTRICITY": 0.0013062,
    "INCLINATION": 98.8427,
    "RA_OF_ASC_NODE": 186.9777,
    "ARG_OF_PERICENTER": 282.0378,
    "MEAN_ANOMALY": 77.9331,
    "EPHEMERIS_TYPE": 0,
    "CLASSIFICATION_TYPE": "U",
    "NORAD_CAT_ID": 28654,
    "ELEMENT_SET_NO": 999,
    "REV_AT_EPOCH": 2608,
    "BSTAR": 0.00038892,
    "MEAN_MOTION_DOT": 6.89e-6,
    "MEAN_MOTION_DDOT": 0
  },
  {
    "OBJECT_NAME": "METEOSAT-9 (MSG-2)",
    "OBJECT_ID": "2005-049B",
    "EPOCH": "2025-04-16T21:36:36.910080",
    "MEAN_MOTION": 1.00270603,
    "ECCENTRICITY": 0.0001232,
    "INCLINATION": 8.3884,
    "RA_OF_ASC_NODE": 58.1971,
    "ARG_OF_PERICENTER": 356.3564,
    "MEAN_ANOMALY": 160.5456,
    "EPHEMERIS_TYPE": 0,
    "CLASSIFICATION_TYPE": "U",
    "NORAD_CAT_ID": 28912,
    "ELEMENT_SET_NO": 999,
    "REV_AT_EPOCH": 273,
    "BSTAR": 0,
    "MEAN_MOTION_DOT": 1.37e-6,
    "MEAN_MOTION_DDOT": 0
  },
  {
    "OBJECT_NAME": "EWS-G1 (GOES 13)",
    "OBJECT_ID": "2006-018A",
    "EPOCH": "2025-04-16T18:44:05.265600",
    "MEAN_MOTION": 0.98834401,
    "ECCENTRICITY": 0.0065366,
    "INCLINATION": 3.4211,
    "RA_OF_ASC_NODE": 81.6034,
    "ARG_OF_PERICENTER": 264.4612,
    "MEAN_ANOMALY": 302.6423,
    "EPHEMERIS_TYPE": 0,
    "CLASSIFICATION_TYPE": "U",
    "NORAD_CAT_ID": 29155,
    "ELEMENT_SET_NO": 999,
    "REV_AT_EPOCH": 3903,
    "BSTAR": 0,
    "MEAN_MOTION_DOT": -2.34e-6,
    "MEAN_MOTION_DDOT": 0
  },
  {
    "OBJECT_NAME": "DMSP 5D-3 F17 (USA 191)",
    "OBJECT_ID": "2006-050A",
    "EPOCH": "2025-04-16T23:10:22.914336",
    "MEAN_MOTION": 14.14814998,
    "ECCENTRICITY": 0.0009878,
    "INCLINATION": 98.7413,
    "RA_OF_ASC_NODE": 117.2845,
    "ARG_OF_PERICENTER": 186.1649,
    "MEAN_ANOMALY": 173.9405,
    "EPHEMERIS_TYPE": 0,
    "CLASSIFICATION_TYPE": "U",
    "NORAD_CAT_ID": 29522,
    "ELEMENT_SET_NO": 999,
    "REV_AT_EPOCH": 95214,
    "BSTAR": 0.00029765,
    "MEAN_MOTION_DOT": 5.31e-6,
    "MEAN_MOTION_DDOT": 0
  },
  {
    "OBJECT_NAME": "FENGYUN 3A",
    "OBJECT_ID": "2008-026A",
    "EPOCH": "2025-04-16T21:10:59.098080",
    "MEAN_MOTION": 14.19422295,
    "ECCENTRICITY": 0.0007583,
    "INCLINATION": 98.6439,
    "RA_OF_ASC_NODE": 51.8862,
    "ARG_OF_PERICENTER": 278.5855,
    "MEAN_ANOMALY": 81.4462,
    "EPHEMERIS_TYPE": 0,
    "CLASSIFICATION_TYPE": "U",
    "NORAD_CAT_ID": 32958,
    "ELEMENT_SET_NO": 999,
    "REV_AT_EPOCH": 87492,
    "BSTAR": 0.00028086,
    "MEAN_MOTION_DOT": 5.48e-6,
    "MEAN_MOTION_DDOT": 0
  },
  {
    "OBJECT_NAME": "NOAA 19",
    "OBJECT_ID": "2009-005A",
    "EPOCH": "2025-04-16T21:31:33.593376",
    "MEAN_MOTION": 14.13343679,
    "ECCENTRICITY": 0.0014413,
    "INCLINATION": 99.0011,
    "RA_OF_ASC_NODE": 171.2913,
    "ARG_OF_PERICENTER": 152.1009,
    "MEAN_ANOMALY": 208.0939,
    "EPHEMERIS_TYPE": 0,
    "CLASSIFICATION_TYPE": "U",
    "NORAD_CAT_ID": 33591,
    "ELEMENT_SET_NO": 999,
    "REV_AT_EPOCH": 83426,
    "BSTAR": 0.00037139,
    "MEAN_MOTION_DOT": 6.52e-6,
    "MEAN_MOTION_DDOT": 0
  },
  {
    "OBJECT_NAME": "GOES 14",
    "OBJECT_ID": "2009-033A",
    "EPOCH": "2025-04-16T14:01:12.216288",
    "MEAN_MOTION": 1.00271024,
    "ECCENTRICITY": 5.28e-5,
    "INCLINATION": 0.5747,
    "RA_OF_ASC_NODE": 88.6515,
    "ARG_OF_PERICENTER": 22.1844,
    "MEAN_ANOMALY": 196.114,
    "EPHEMERIS_TYPE": 0,
    "CLASSIFICATION_TYPE": "U",
    "NORAD_CAT_ID": 35491,
    "ELEMENT_SET_NO": 999,
    "REV_AT_EPOCH": 231,
    "BSTAR": 0,
    "MEAN_MOTION_DOT": -5.6e-7,
    "MEAN_MOTION_DDOT": 0
  },
  {
    "OBJECT_NAME": "DMSP 5D-3 F18 (USA 210)",
    "OBJECT_ID": "2009-057A",
    "EPOCH": "2025-04-16T21:22:41.140416",
    "MEAN_MOTION": 14.14590136,
    "ECCENTRICITY": 0.001174,
    "INCLINATION": 98.8564,
    "RA_OF_ASC_NODE": 84.8946,
    "ARG_OF_PERICENTER": 28.2905,
    "MEAN_ANOMALY": 331.8903,
    "EPHEMERIS_TYPE": 0,
    "CLASSIFICATION_TYPE": "U",
    "NORAD_CAT_ID": 35951,
    "ELEMENT_SET_NO": 999,
    "REV_AT_EPOCH": 79931,
    "BSTAR": 0.00050094,
    "MEAN_MOTION_DOT": 9.19e-6,
    "MEAN_MOTION_DDOT": 0
  },
  {
    "OBJECT_NAME": "EWS-G2 (GOES 15)",
    "OBJECT_ID": "2010-008A",
    "EPOCH": "2025-04-16T09:49:38.602848",
    "MEAN_MOTION": 1.00274789,
    "ECCENTRICITY": 0.0001902,
    "INCLINATION": 0.1686,
    "RA_OF_ASC_NODE": 86.1757,
    "ARG_OF_PERICENTER": 196.7226,
    "MEAN_ANOMALY": 130.6731,
    "EPHEMERIS_TYPE": 0,
    "CLASSIFICATION_TYPE": "U",
    "NORAD_CAT_ID": 36411,
    "ELEMENT_SET_NO": 999,
    "REV_AT_EPOCH": 5535,
    "BSTAR": 0,
    "MEAN_MOTION_DOT": 4.8e-7,
    "MEAN_MOTION_DDOT": 0
  },
  {
    "OBJECT_NAME": "COMS 1",
    "OBJECT_ID": "2010-032A",
    "EPOCH": "2025-04-16T06:34:41.294784",
    "MEAN_MOTION": 1.00271935,
    "ECCENTRICITY": 0.0001176,
    "INCLINATION": 3.71,
    "RA_OF_ASC_NODE": 80.7723,
    "ARG_OF_PERICENTER": 321.8572,
    "MEAN_ANOMALY": 28.8592,
    "EPHEMERIS_TYPE": 0,
    "CLASSIFICATION_TYPE": "U",
    "NORAD_CAT_ID": 36744,
    "ELEMENT_SET_NO": 999,
    "REV_AT_EPOCH": 4680,
    "BSTAR": 0,
    "MEAN_MOTION_DOT": -3.33e-6,
    "MEAN_MOTION_DDOT": 0
  },
  {
    "OBJECT_NAME": "FENGYUN 3B",
    "OBJECT_ID": "2010-059A",
    "EPOCH": "2025-04-16T22:24:58.154688",
    "MEAN_MOTION": 14.14715178,
    "ECCENTRICITY": 0.0021285,
    "INCLINATION": 99.019,
    "RA_OF_ASC_NODE": 144.7849,
    "ARG_OF_PERICENTER": 315.9252,
    "MEAN_ANOMALY": 164.2926,
    "EPHEMERIS_TYPE": 0,
    "CLASSIFICATION_TYPE": "U",
    "NORAD_CAT_ID": 37214,
    "ELEMENT_SET_NO": 999,
    "REV_AT_EPOCH": 74719,
    "BSTAR": 0.00020346,
    "MEAN_MOTION_DOT": 3.47e-6,
    "MEAN_MOTION_DDOT": 0
  },
  {
    "OBJECT_NAME": "SUOMI NPP",
    "OBJECT_ID": "2011-061A",
    "EPOCH": "2025-04-16T21:39:14.331744",
    "MEAN_MOTION": 14.19520877,
    "ECCENTRICITY": 0.0002483,
    "INCLINATION": 98.7544,
    "RA_OF_ASC_NODE": 46.7736,
    "ARG_OF_PERICENTER": 97.8144,
    "MEAN_ANOMALY": 262.3314,
    "EPHEMERIS_TYPE": 0,
    "CLASSIFICATION_TYPE": "U",
    "NORAD_CAT_ID": 37849,
    "ELEMENT_SET_NO": 999,
    "REV_AT_EPOCH": 69796,
    "BSTAR": 0.00019761,
    "MEAN_MOTION_DOT": 3.73e-6,
    "MEAN_MOTION_DDOT": 0
  }
]
