NOAA 15                 
1 25338U 98030A   25106.89007669  .00000663  00000+0  29021-3 0  9991
2 25338  98.5405 133.3017 0010926 151.1045 209.0743 14.26945406400490
DMSP 5D-3 F16 (USA 172) 
1 28054U 03048A   25106.95515503  .00000467  00000+0  26817-3 0  9994
2 28054  99.0166 122.2984 0006080 274.3952 143.9644 14.14337938109235
NOAA 18                 
1 28654U 05018A   25106.89920532  .00000689  00000+0  38892-3 0  9996
2 28654  98.8427 186.9777 0013062 282.0378  77.9331 14.13578825 26082
METEOSAT-9 (MSG-2)      
1 28912U 05049B   25106.90042720  .00000137  00000+0  00000+0 0  9997
2 28912   8.3884  58.1971 0001232 356.3564 160.5456  1.00270603  2734
EWS-G1 (GOES 13)        
1 29155U 06018A   25106.78061650 -.00000234  00000+0  00000+0 0  9992
2 29155   3.4211  81.6034 0065366 264.4612 302.6423  0.98834401 39030
DMSP 5D-3 F17 (USA 191) 
1 29522U 06050A   25106.96554299  .00000531  00000+0  29765-3 0  9994
2 29522  98.7413 117.2845 0009878 186.1649 173.9405 14.14814998952148
FENGYUN 3A              
1 32958U 08026A   25106.88262845  .00000548  00000+0  28086-3 0  9993
2 32958  98.6439  51.8862 0007583 278.5855  81.4462 14.19422295874925
NOAA 19                 
1 33591U 09005A   25106.89691659  .00000652  00000+0  37139-3 0  9990
2 33591  99.0011 171.2913 0014413 152.1009 208.0939 14.13343679834263
GOES 14                 
1 35491U 09033A   25106.58416917 -.00000056  00000+0  00000+0 0  9992
2 35491   0.5747  88.6515 0000528  22.1844 196.1140  1.00271024  2311
DMSP 5D-3 F18 (USA 210) 
1 35951U 09057A   25106.89075394  .00000919  00000+0  50094-3 0  9992
2 35951  98.8564  84.8946 0011740  28.2905 331.8903 14.14590136799313
EWS-G2 (GOES 15)        
1 36411U 10008A   25106.40947457  .00000048  00000+0  00000+0 0  9998
2 36411   0.1686  86.1757 0001902 196.7226 130.6731  1.00274789 55354
COMS 1                  
1 36744U 10032A   25106.27408906 -.00000333  00000+0  00000+0 0  9998
2 36744   3.7100  80.7723 0001176 321.8572  28.8592  1.00271935 46807
FENGYUN 3B              
1 37214U 10059A   25106.93400642  .00000347  00000+0  20346-3 0  9995
2 37214  99.0190 144.7849 0021285 315.9252 164.2926 14.14715178747196
SUOMI NPP               
1 37849U 11061A   25106.90224921  .00000373  00000+0  19761-3 0  9992
2 37849  98.7544  46.7736 0002483  97.8144 262.3314 14.19520877697965
